FENGYUN 1C DEB          
1 29921U 99025HT  17345.65889559  .00000074  00000-0  74771-4 0  9994
2 29921  99.0232  12.9738 0046266 318.5863 166.0972 14.03735473558419
